[{"OBJECT_NAME":"FLORIPASAT-1","OBJECT_ID":"2019-093G","EPOCH":"2026-03-09T23:35:55.317696","MEAN_MOTION":15.02721611,"ECCENTRICITY":0.00131238,"INCLINATION":97.7908,"RA_OF_ASC_NODE":162.596,"ARG_OF_PERICENTER":52.6692,"MEAN_ANOMALY":307.5727,"EPHEMERIS_TYPE":0,"CLASSIFICATION_TYPE":"U","NORAD_CAT_ID":44885,"ELEMENT_SET_NO":999,"REV_AT_EPOCH":33774,"BSTAR":0.00066057159,"MEAN_MOTION_DOT":8.782e-5,"MEAN_MOTION_DDOT":0},{"OBJECT_NAME":"STARLINK-35136","OBJECT_ID":"2025-200T","EPOCH":"2026-03-09T17:22:37.635744","MEAN_MOTION":15.0562863,"ECCENTRICITY":0.00016048,"INCLINATION":97.6024,"RA_OF_ASC_NODE":139.7945,"ARG_OF_PERICENTER":88.3851,"MEAN_ANOMALY":271.7559,"EPHEMERIS_TYPE":0,"CLASSIFICATION_TYPE":"U","NORAD_CAT_ID":65537,"ELEMENT_SET_NO":999,"REV_AT_EPOCH":2904,"BSTAR":0.00068992897,"MEAN_MOTION_DOT":9.902e-5,"MEAN_MOTION_DDOT":0}]
